OBJECT_NAME,OBJECT_ID,EPOCH,MEAN_MOTION,ECCENTRICITY,INCLINATION,RA_OF_ASC_NODE,ARG_OF_PERICENTER,MEAN_ANOMALY,EPHEMERIS_TYPE,CLASSIFICATION_TYPE,NORAD_CAT_ID,ELEMENT_SET_NO,REV_AT_EPOCH,BSTAR,MEAN_MOTION_DOT,MEAN_MOTION_DDOT
OSCAR 7 (AO-7),1974-089B,2026-06-12T06:20:25.627200,12.53697997,.00125194,101.9901,176.4594,139.2870,231.9396,0,U,7530,999,35990,.11075317E-3,-.29E-6,0
PHASE 3B (AO-10),1983-058B,2026-06-07T04:08:14.383680,2.05872980,.60142661,25.9048,221.2242,112.9115,319.2048,0,U,14129,999,29528,0,-.194E-5,0
UOSAT 2 (UO-11),1984-021B,2026-06-11T20:26:29.934240,14.90770083,.00071366,97.8055,128.4861,190.5105,169.5965,0,U,14781,999,25633,.12615067E-3,.1184E-4,0
LUSAT (LO-19),1990-005G,2026-06-12T07:09:20.223072,14.34121799,.00108588,98.8851,184.9689,216.1555,143.8896,0,U,20442,999,90169,.58249439E-4,.116E-5,0
EYESAT A (AO-27),1993-061C,2026-06-12T04:12:10.906272,14.30940991,.00094701,98.6880,230.5904,112.6662,247.5523,0,U,22825,999,70628,.50602172E-4,.88E-6,0
ITAMSAT (IO-26),1993-061D,2026-06-12T03:44:41.314272,14.31367730,.00100766,98.6828,230.4881,98.0935,262.1392,0,U,22826,999,70659,.50545474E-4,.89E-6,0
RADIO ROSTO (RS15),1994-085A,2026-06-12T01:27:24.738336,11.27583584,.01557878,64.8187,311.5072,4.8242,355.4142,0,U,23439,999,29532,-.34108966E-3,-.55E-6,0
JAS-2 (FO-29),1996-046B,2026-06-12T03:15:23.117472,13.53273969,.03508428,98.5244,12.6999,109.5060,254.4324,0,U,24278,999,47248,.47898104E-4,.15E-6,0
TECHSAT 1B (GO-32),1998-043D,2026-06-12T05:13:22.513152,14.24427513,.00007726,99.0066,155.8509,174.7863,185.3323,0,U,25397,999,45062,.4382717E-4,.55E-6,0
ISS (ZARYA),1998-067A,2026-06-11T23:08:55.780800,15.49182446,.00049318,51.6334,325.9414,175.6343,184.4689,0,U,25544,999,57094,.15344347E-3,.8067E-4,0
PCSAT (NO-44),2001-043C,2026-06-11T15:23:47.847264,14.31954152,.00060996,67.0509,258.6152,264.4327,95.6080,0,U,26931,999,28965,.57658929E-4,.72E-6,0
SAUDISAT 1C (SO-50),2002-058C,2026-06-12T07:12:13.344480,14.83036938,.00753718,64.5507,144.1057,263.3766,95.8757,0,U,27607,999,26373,.13385224E-3,.989E-5,0
CUTE-1 (CO-55),2003-031E,2026-06-11T23:30:12.657888,14.24332546,.0009162,98.6735,171.6035,193.3973,166.6964,0,U,27844,999,19093,.1241768E-3,.243E-5,0
CUBESAT XI-IV (CO-57),2003-031J,2026-06-11T23:09:49.759200,14.23618048,.00087106,98.6768,171.3067,213.1482,146.9152,0,U,27848,999,19063,.11102404E-3,.209E-5,0
MOZHAETS 4 (RS22),2003-042A,2026-06-12T08:01:50.178720,14.73458230,.00100223,98.3472,347.5567,287.0186,197.0572,0,U,27939,999,21483,.10111176E-3,.603E-5,0
CUBESAT XI-V,2005-043F,2026-06-11T23:12:17.734752,14.72617350,.00133393,98.2978,318.4792,218.0052,142.0215,0,U,28895,999,10098,.19211062E-3,.1171E-4,0
CUTE-1.7+APD II (CO-65),2008-021C,2026-06-12T05:03:17.275968,15.09408566,.00102823,97.8272,144.5255,54.0359,306.1822,0,U,32785,999,98444,.33220045E-3,.525E-4,0
SEEDS II (CO-66),2008-021J,2026-06-12T05:44:11.493024,15.32585967,.00018158,97.7515,160.9008,20.0677,340.0635,0,U,32791,999,98653,.61967164E-3,.19444E-3,0
YUBILEINY (RS30),2008-025A,2026-06-12T06:28:28.983360,12.43179266,.00190501,82.5049,358.5001,325.0036,34.9790,0,U,32953,999,81908,.63935538E-3,.99E-6,0
KKS-1 (KISEKI),2009-002H,2026-06-12T06:20:16.775520,14.83112324,.00067881,98.1193,85.6283,314.7383,45.3277,0,U,33499,999,93546,.16092614E-3,.1256E-4,0
SWISSCUBE,2009-051B,2026-06-11T05:11:30.524928,14.62470076,.0005629,98.4041,70.0006,224.4191,135.6559,0,U,35932,999,88828,.16844E-3,.804E-5,0
BEESAT-1,2009-051C,2026-06-12T05:59:13.182432,14.61713145,.00039964,98.3970,70.6975,236.3504,123.7316,0,U,35933,999,88846,.16659664E-3,.781E-5,0
ITUPSAT1,2009-051E,2026-06-11T04:59:59.440704,14.60431670,.0006132,98.4055,68.8386,256.4621,103.5895,0,U,35935,999,88786,.13683E-3,.614E-5,0
XIWANG-1 (HOPE-1),2009-072B,2026-06-12T05:28:13.977984,13.16440697,.00068047,100.4019,117.1389,244.0198,116.0214,0,U,36122,999,79235,.11636338E-2,.4E-5,0
O/OREOS (USA 219),2010-062C,2026-06-12T05:46:07.893696,14.93724392,.0012424,71.9710,91.5441,73.8803,286.3735,0,U,37224,999,11590,.22532861E-3,.2327E-4,0
JUGNU,2011-058B,2026-06-12T03:54:33.555168,14.13775454,.0018583,19.9621,338.9523,20.9727,136.2305,0,U,37839,999,75831,.72628816E-4,.406E-5,0
SRMSAT,2011-058D,2026-06-11T12:22:46.149888,14.11574372,.0011909,19.9715,93.7945,141.4141,27.1536,0,U,37841,999,75701,.48954E-4,.355E-5,0
STRAND-1,2013-009E,2026-06-12T06:03:01.536768,14.37160588,.00075292,98.3921,343.6080,242.0462,117.9963,0,U,39090,999,69635,.10584582E-3,.272E-5,0
ZACUBE-1 (TSHEPISOSAT),2013-066B,2026-06-12T03:23:42.543168,15.01158093,.00402706,97.8084,125.4510,265.3483,94.3141,0,U,39417,999,67997,.23861875E-3,.3046E-4,0
GOMX-1,2013-066Q,2026-06-12T06:47:49.527168,14.69441853,.01301903,97.6492,4.0559,93.1134,268.4979,0,U,39430,999,66919,.27069911E-3,.1775E-4,0
