OSCAR 7 (AO-7)          
1 07530U 74089B   26163.26418550 -.00000029  00000+0  11075-3 0  9990
2 07530 101.9901 176.4594 0012519 139.2870 231.9396 12.53697997359909
PHASE 3B (AO-10)        
1 14129U 83058B   26158.17238870 -.00000194  00000+0  00000+0 0  9992
2 14129  25.9048 221.2242 6014266 112.9115 319.2048  2.05872980295281
UOSAT 2 (UO-11)         
1 14781U 84021B   26162.85173535  .00001184  00000+0  12615-3 0  9991
2 14781  97.8055 128.4861 0007136 190.5105 169.5965 14.90770083256334
LUSAT (LO-19)           
1 20442U 90005G   26163.29815073  .00000116  00000+0  58249-4 0  9998
2 20442  98.8851 184.9689 0010858 216.1555 143.8896 14.34121799901690
EYESAT A (AO-27)        
1 22825U 93061C   26163.17512623  .00000088  00000+0  50602-4 0  9995
2 22825  98.6880 230.5904 0009470 112.6662 247.5523 14.30940991706288
ITAMSAT (IO-26)         
1 22826U 93061D   26163.15603373  .00000089  00000+0  50545-4 0  9994
2 22826  98.6828 230.4881 0010076  98.0935 262.1392 14.31367730706594
RADIO ROSTO (RS15)      
1 23439U 94085A   26163.06070299 -.00000055  00000+0 -34109-3 0  9999
2 23439  64.8187 311.5072 0155787   4.8242 355.4142 11.27583584295328
JAS-2 (FO-29)           
1 24278U 96046B   26163.13568423  .00000015  00000+0  47898-4 0  9993
2 24278  98.5244  12.6999 0350842 109.5060 254.4324 13.53273969472483
TECHSAT 1B (GO-32)      
1 25397U 98043D   26163.21762168  .00000055  00000+0  43827-4 0  9998
2 25397  99.0066 155.8509 0000772 174.7863 185.3323 14.24427513450628
ISS (ZARYA)             
1 25544U 98067A   26162.96453450  .00008067  00000+0  15344-3 0  9993
2 25544  51.6334 325.9414 0004931 175.6343 184.4689 15.49182446570947
PCSAT (NO-44)           
1 26931U 01043C   26162.64152601  .00000072  00000+0  57659-4 0  9995
2 26931  67.0509 258.6152 0006099 264.4327  95.6080 14.31954152289654
SAUDISAT 1C (SO-50)     
1 27607U 02058C   26163.30015445  .00000989  00000+0  13385-3 0  9995
2 27607  64.5507 144.1057 0075371 263.3766  95.8757 14.83036938263736
CUTE-1 (CO-55)          
1 27844U 03031E   26162.97931317  .00000243  00000+0  12418-3 0  9996
2 27844  98.6735 171.6035 0009162 193.3973 166.6964 14.24332546190935
CUBESAT XI-IV (CO-57)   
1 27848U 03031J   26162.96515925  .00000209  00000+0  11102-3 0  9993
2 27848  98.6768 171.3067 0008710 213.1482 146.9152 14.23618048190631
MOZHAETS 4 (RS22)       
1 27939U 03042A   26163.33460855  .00000603  00000+0  10111-3 0  9996
2 27939  98.3472 347.5567 0010022 287.0186 197.0572 14.73458230214835
CUBESAT XI-V            
1 28895U 05043F   26162.96687193  .00001171  00000+0  19211-3 0  9996
2 28895  98.2978 318.4792 0013339 218.0052 142.0215 14.72617350100987
CUTE-1.7+APD II (CO-65) 
1 32785U 08021C   26163.21061662  .00005250  00000+0  33220-3 0  9992
2 32785  97.8272 144.5255 0010282  54.0359 306.1822 15.09408566984442
SEEDS II (CO-66)        
1 32791U 08021J   26163.23902191  .00019444  00000+0  61967-3 0  9991
2 32791  97.7515 160.9008 0001815  20.0677 340.0635 15.32585967986532
YUBILEINY (RS30)        
1 32953U 08025A   26163.26977990  .00000099  00000+0  63936-3 0  9991
2 32953  82.5049 358.5001 0019050 325.0036  34.9790 12.43179266819087
KKS-1 (KISEKI)          
1 33499U 09002H   26163.26408305  .00001256  00000+0  16093-3 0  9990
2 33499  98.1193  85.6283 0006788 314.7383  45.3277 14.83112324935465
SWISSCUBE               
1 35932U 09051B   26162.21632552  .00000804  00000+0  16844-3 0  9997
2 35932  98.4041  70.0006 0005629 224.4191 135.6559 14.62470076888283
BEESAT-1                
1 35933U 09051C   26163.24945813  .00000781  00000+0  16660-3 0  9999
2 35933  98.3970  70.6975 0003996 236.3504 123.7316 14.61713145888465
ITUPSAT1                
1 35935U 09051E   26162.20832686  .00000614  00000+0  13683-3 0  9996
2 35935  98.4055  68.8386 0006132 256.4621 103.5895 14.60431670887865
XIWANG-1 (HOPE-1)       
1 36122U 09072B   26163.22793956  .00000400  00000+0  11636-2 0  9995
2 36122 100.4019 117.1389 0006804 244.0198 116.0214 13.16440697792359
O/OREOS (USA 219)       
1 37224U 10062C   26163.24036914  .00002327  00000+0  22533-3 0  9995
2 37224  71.9710  91.5441 0012424  73.8803 286.3735 14.93724392115905
JUGNU                   
1 37839U 11058B   26163.16288837  .00000406  00000+0  72629-4 0  9995
2 37839  19.9621 338.9523 0018583  20.9727 136.2305 14.13775454758310
SRMSAT                  
1 37841U 11058D   26162.51581192  .00000355  00000+0  48954-4 0  9993
2 37841  19.9715  93.7945 0011909 141.4141  27.1536 14.11574372757019
STRAND-1                
1 39090U 13009E   26163.25210112  .00000272  00000+0  10585-3 0  9998
2 39090  98.3921 343.6080 0007529 242.0462 117.9963 14.37160588696350
ZACUBE-1 (TSHEPISOSAT)  
1 39417U 13066B   26163.14146462  .00003046  00000+0  23862-3 0  9992
2 39417  97.8084 125.4510 0040270 265.3483  94.3141 15.01158093679977
GOMX-1                  
1 39430U 13066Q   26163.28321212  .00001775  00000+0  27070-3 0  9992
2 39430  97.6492   4.0559 0130190  93.1134 268.4979 14.69441853669197
